{"type": "FeatureCollection", "features": [ {"type": "Feature", "properties": {"norad_id": 44476, "name": "INTELSAT 39 (IS-39)", "group": "intelsat", "lat": 0.020929383338161228, "lon": 3.658295184429779, "alt_km": 35789.74702087674, "timestamp": "2025-12-09T14:52:25.834005+00:00", "meta": {"OBJECT_NAME": "INTELSAT 39 (IS-39)", "OBJECT_ID": "2019-049B", "EPOCH": "2025-12-09T05:18:26.589312", "MEAN_MOTION": 1.00271128, "ECCENTRICITY": 9.613e-05, "INCLINATION": 0.0158, "RA_OF_ASC_NODE": 314.445, "ARG_OF_PERICENTER": 199.6655, "MEAN_ANOMALY": 65.6677, "EPHEMERIS_TYPE": 0, "CLASSIFICATION_TYPE": "U", "NORAD_CAT_ID": 44476, "ELEMENT_SET_NO": 999, "REV_AT_EPOCH": 2322, "BSTAR": 0, "MEAN_MOTION_DOT": 3.6e-07, "MEAN_MOTION_DDOT": 0}, "tle": {"line1": "1 44476U 19049B   25343.22114108  .00000036  00000+0  00000+0 0  9991", "line2": "2 44476   0.0158 314.4450 0000961 199.6655  65.6677  1.00271128 23227"}}, "geometry": {"type": "Point", "coordinates": [3.658295184429779, 0.020929383338161228]}}, {"type": "Feature", "properties": {"norad_id": 46114, "name": "GALAXY 30 (G-30)", "group": "intelsat", "lat": -0.0009161383537860375, "lon": 176.68081551883876, "alt_km": 35784.534132966306, "timestamp": "2025-12-09T14:52:25.834016+00:00", "meta": {"OBJECT_NAME": "GALAXY 30 (G-30)", "OBJECT_ID": "2020-056C", "EPOCH": "2025-12-09T07:14:11.466240", "MEAN_MOTION": 1.00271399, "ECCENTRICITY": 0.00023904, "INCLINATION": 0.017, "RA_OF_ASC_NODE": 2.7395, "ARG_OF_PERICENTER": 254.6208, "MEAN_ANOMALY": 164.4778, "EPHEMERIS_TYPE": 0, "CLASSIFICATION_TYPE": "U", "NORAD_CAT_ID": 46114, "ELEMENT_SET_NO": 999, "REV_AT_EPOCH": 1938, "BSTAR": 0, "MEAN_MOTION_DOT": 3.9e-07, "MEAN_MOTION_DDOT": 0}, "tle": {"line1": "1 46114U 20056C   25343.30152160  .00000039  00000+0  00000+0 0  9994", "line2": "2 46114   0.0170   2.7395 0002390 254.6208 164.4778  1.00271399 19383"}}, "geometry": {"type": "Point", "coordinates": [176.68081551883876, -0.0009161383537860375]}}, {"type": "Feature", "properties": {"norad_id": 54026, "name": "GALAXY 33 (G-33)", "group": "intelsat", "lat": -0.01418331579317652, "lon": 168.6900153730841, "alt_km": 35784.50565672755, "timestamp": "2025-12-09T14:52:25.834028+00:00", "meta": {"OBJECT_NAME": "GALAXY 33 (G-33)", "OBJECT_ID": "2022-128A", "EPOCH": "2025-12-09T07:10:20.298720", "MEAN_MOTION": 1.00272119, "ECCENTRICITY": 0.00022391, "INCLINATION": 0.0139, "RA_OF_ASC_NODE": 305.716, "ARG_OF_PERICENTER": 304.0516, "MEAN_ANOMALY": 163.1114, "EPHEMERIS_TYPE": 0, "CLASSIFICATION_TYPE": "U", "NORAD_CAT_ID": 54026, "ELEMENT_SET_NO": 999, "REV_AT_EPOCH": 1183, "BSTAR": 0, "MEAN_MOTION_DOT": 8.1e-07, "MEAN_MOTION_DDOT": 0}, "tle": {"line1": "1 54026U 22128A   25343.29884605  .00000081  00000+0  00000+0 0  9998", "line2": "2 54026   0.0139 305.7160 0002239 304.0516 163.1114  1.00272119 11832"}}, "geometry": {"type": "Point", "coordinates": [168.6900153730841, -0.01418331579317652]}}, {"type": "Feature", "properties": {"norad_id": 54027, "name": "GALAXY 34 (G-34)", "group": "intelsat", "lat": -0.017923174652333805, "lon": 172.76438433842162, "alt_km": 35785.0089800763, "timestamp": "2025-12-09T14:52:25.834040+00:00", "meta": {"OBJECT_NAME": "GALAXY 34 (G-34)", "OBJECT_ID": "2022-128B", "EPOCH": "2025-12-09T06:59:44.413728", "MEAN_MOTION": 1.00270481, "ECCENTRICITY": 0.00013542, "INCLINATION": 0.0253, "RA_OF_ASC_NODE": 322.9124, "ARG_OF_PERICENTER": 285.4458, "MEAN_ANOMALY": 165.93, "EPHEMERIS_TYPE": 0, "CLASSIFICATION_TYPE": "U", "NORAD_CAT_ID": 54027, "ELEMENT_SET_NO": 999, "REV_AT_EPOCH": 1200, "BSTAR": 0, "MEAN_MOTION_DOT": 0, "MEAN_MOTION_DDOT": 0}, "tle": {"line1": "1 54027U 22128B   25343.29148627  .00000000  00000+0  00000+0 0  9997", "line2": "2 54027   0.0253 322.9124 0001354 285.4458 165.9300  1.00270481 12002"}}, "geometry": {"type": "Point", "coordinates": [172.76438433842162, -0.017923174652333805]}}, {"type": "Feature", "properties": {"norad_id": 54243, "name": "GALAXY 31 (G-31)", "group": "intelsat", "lat": -0.017880535754221306, "lon": -179.30573246456194, "alt_km": 35785.99007753093, "timestamp": "2025-12-09T14:52:25.834051+00:00", "meta": {"OBJECT_NAME": "GALAXY 31 (G-31)", "OBJECT_ID": "2022-153A", "EPOCH": "2025-12-09T07:18:26.720352", "MEAN_MOTION": 1.00271863, "ECCENTRICITY": 0.00019124, "INCLINATION": 0.0194, "RA_OF_ASC_NODE": 256.9706, "ARG_OF_PERICENTER": 13.4115, "MEAN_ANOMALY": 156.5303, "EPHEMERIS_TYPE": 0, "CLASSIFICATION_TYPE": "U", "NORAD_CAT_ID": 54243, "ELEMENT_SET_NO": 999, "REV_AT_EPOCH": 522, "BSTAR": 0, "MEAN_MOTION_DOT": 1.5e-07, "MEAN_MOTION_DDOT": 0}, "tle": {"line1": "1 54243U 22153A   25343.30447593  .00000015  00000+0  00000+0 0  9997", "line2": "2 54243   0.0194 256.9706 0001912  13.4115 156.5303  1.00271863  5227"}}, "geometry": {"type": "Point", "coordinates": [-179.30573246456194, -0.017880535754221306]}}, {"type": "Feature", "properties": {"norad_id": 54244, "name": "GALAXY 32 (G-32)", "group": "intelsat", "lat": -0.02133160575890617, "lon": -149.32278706149913, "alt_km": 35788.04914716996, "timestamp": "2025-12-09T14:52:25.834063+00:00", "meta": {"OBJECT_NAME": "GALAXY 32 (G-32)", "OBJECT_ID": "2022-153B", "EPOCH": "2025-12-09T07:06:25.822080", "MEAN_MOTION": 1.00270514, "ECCENTRICITY": 0.00027293, "INCLINATION": 0.008, "RA_OF_ASC_NODE": 342.0626, "ARG_OF_PERICENTER": 326.8107, "MEAN_ANOMALY": 145.0207, "EPHEMERIS_TYPE": 0, "CLASSIFICATION_TYPE": "U", "NORAD_CAT_ID": 54244, "ELEMENT_SET_NO": 999, "REV_AT_EPOCH": 1124, "BSTAR": 0, "MEAN_MOTION_DOT": -1.72e-06, "MEAN_MOTION_DDOT": 0}, "tle": {"line1": "1 54244U 22153B   25343.29613220 -.00000172  00000+0  00000+0 0  9993", "line2": "2 54244   0.0080 342.0626 0002729 326.8107 145.0207  1.00270514 11246"}}, "geometry": {"type": "Point", "coordinates": [-149.32278706149913, -0.02133160575890617]}}, {"type": "Feature", "properties": {"norad_id": 54741, "name": "GALAXY 35 (G-35)", "group": "intelsat", "lat": 0.0024638760734236537, "lon": -151.40165757446584, "alt_km": 35780.08111992854, "timestamp": "2025-12-09T14:52:25.834076+00:00", "meta": {"OBJECT_NAME": "GALAXY 35 (G-35)", "OBJECT_ID": "2022-170A", "EPOCH": "2025-12-09T07:05:27.071808", "MEAN_MOTION": 1.00271036, "ECCENTRICITY": 0.00026527, "INCLINATION": 0.0259, "RA_OF_ASC_NODE": 89.578, "ARG_OF_PERICENTER": 175.3934, "MEAN_ANOMALY": 186.592, "EPHEMERIS_TYPE": 0, "CLASSIFICATION_TYPE": "U", "NORAD_CAT_ID": 54741, "ELEMENT_SET_NO": 999, "REV_AT_EPOCH": 1099, "BSTAR": 0, "MEAN_MOTION_DOT": -1.6e-06, "MEAN_MOTION_DDOT": 0}, "tle": {"line1": "1 54741U 22170A   25343.29545222 -.00000160  00000+0  00000+0 0  9997", "line2": "2 54741   0.0259  89.5780 0002652 175.3934 186.5920  1.00271036 10993"}}, "geometry": {"type": "Point", "coordinates": [-151.40165757446584, 0.0024638760734236537]}}, {"type": "Feature", "properties": {"norad_id": 54742, "name": "GALAXY 36 (G-36)", "group": "intelsat", "lat": -0.015670664307528847, "lon": -147.29819037770162, "alt_km": 35785.62414257678, "timestamp": "2025-12-09T14:52:25.834088+00:00", "meta": {"OBJECT_NAME": "GALAXY 36 (G-36)", "OBJECT_ID": "2022-170B", "EPOCH": "2025-12-09T07:07:50.530368", "MEAN_MOTION": 1.00270712, "ECCENTRICITY": 5.732e-05, "INCLINATION": 0.0089, "RA_OF_ASC_NODE": 9.5837, "ARG_OF_PERICENTER": 274.4861, "MEAN_ANOMALY": 172.1777, "EPHEMERIS_TYPE": 0, "CLASSIFICATION_TYPE": "U", "NORAD_CAT_ID": 54742, "ELEMENT_SET_NO": 999, "REV_AT_EPOCH": 1087, "BSTAR": 0, "MEAN_MOTION_DOT": -1.83e-06, "MEAN_MOTION_DDOT": 0}, "tle": {"line1": "1 54742U 22170B   25343.29711262 -.00000183  00000+0  00000+0 0  9992", "line2": "2 54742   0.0089   9.5837 0000573 274.4861 172.1777  1.00270712 10878"}}, "geometry": {"type": "Point", "coordinates": [-147.29819037770162, -0.015670664307528847]}}, {"type": "Feature", "properties": {"norad_id": 57493, "name": "GALAXY 37 (G-37)", "group": "intelsat", "lat": -0.006892842570947699, "lon": 174.68827234007463, "alt_km": 35785.95634494377, "timestamp": "2025-12-09T14:52:25.834100+00:00", "meta": {"OBJECT_NAME": "GALAXY 37 (G-37)", "OBJECT_ID": "2023-112A", "EPOCH": "2025-12-09T07:13:13.498752", "MEAN_MOTION": 1.0027157, "ECCENTRICITY": 0.00023386, "INCLINATION": 0.011, "RA_OF_ASC_NODE": 342.0687, "ARG_OF_PERICENTER": 281.7043, "MEAN_ANOMALY": 155.83, "EPHEMERIS_TYPE": 0, "CLASSIFICATION_TYPE": "U", "NORAD_CAT_ID": 57493, "ELEMENT_SET_NO": 999, "REV_AT_EPOCH": 863, "BSTAR": 0, "MEAN_MOTION_DOT": 5e-07, "MEAN_MOTION_DDOT": 0}, "tle": {"line1": "1 57493U 23112A   25343.30085068  .00000050  00000+0  00000+0 0  9997", "line2": "2 57493   0.0110 342.0687 0002338 281.7043 155.8300  1.00271570  8635"}}, "geometry": {"type": "Point", "coordinates": [174.68827234007463, -0.006892842570947699]}}]}